NOAA 20 (JPSS-1)
1 43013U 17073A   26184.56561738  .00000080  00000+0  59079-4 0  9992
2 43013  98.7772 123.8828 0000907 132.6737 227.4515 14.19514774446799
